{
  "links": {
    "next": "https://api.nasa.gov/neo/rest/v1/feed?start_date=2017-08-13&end_date=2017-08-13&detailed=true&api_key=DEMO_KEY",
    "prev": "https://api.nasa.gov/neo/rest/v1/feed?start_date=2017-08-11&end_date=2017-08-11&detailed=true&api_key=DEMO_KEY",
    "self": "https://api.nasa.gov/neo/rest/v1/feed?start_date=2017-08-12&end_date=2017-08-12&detailed=true&api_key=DEMO_KEY"
  },
  "element_count": 8,
  "near_earth_objects": {
    "2017-08-12": [
      {
        "links": {
          "self": "https://api.nasa.gov/neo/rest/v1/neo/3776646?api_key=DEMO_KEY"
        },
        "neo_reference_id": "3776646",
        "name": "(2017 NW5)",
        "nasa_jpl_url": "http://ssd.jpl.nasa.gov/sbdb.cgi?sstr=3776646",
        "absolute_magnitude_h": 20.984,
        "estimated_diameter": {
          "kilometers": {
            "estimated_diameter_min": 0.1689487475,
            "estimated_diameter_max": 0.3777808842
          },
          "meters": {
            "estimated_diameter_min": 168.9487475475,
            "estimated_diameter_max": 377.7808842296
          },
          "miles": {
            "estimated_diameter_min": 0.1049798522,
            "estimated_diameter_max": 0.2347420858
          },
          "feet": {
            "estimated_diameter_min": 554.2938089037,
            "estimated_diameter_max": 1239.4386362159
          }
        },
        "is_potentially_hazardous_asteroid": false,
        "close_approach_data": [
          {
            "close_approach_date": "2017-08-12",
            "epoch_date_close_approach": 1502521200000,
            "relative_velocity": {
              "kilometers_per_second": "21.4212640318",
              "kilometers_per_hour": "77116.5505143832",
              "miles_per_hour": "47917.2255126732"
            },
            "miss_distance": {
              "astronomical": "0.1451749349",
              "lunar": "56.4730491638",
              "kilometers": "21717862",
              "miles": "13494853"
            },
            "orbiting_body": "Earth"
          }
        ],
        "orbital_data": {
          "orbit_id": "3",
          "orbit_determination_date": "2017-07-24 06:20:19",
          "orbit_uncertainty": "8",
          "minimum_orbit_intersection": ".120985",
          "jupiter_tisserand_invariant": "2.649",
          "epoch_osculation": "2457946.5",
          "eccentricity": ".7093078730701801",
          "semi_major_axis": "3.053212200732654",
          "inclination": "28.95976743624672",
          "ascending_node_longitude": "149.713415472557",
          "orbital_period": "1948.650308673056",
          "perihelion_distance": ".8875447485990516",
          "perihelion_argument": "186.4504129166279",
          "aphelion_distance": "5.218879652866257",
          "perihelion_time": "2457986.573571342091",
          "mean_anomaly": "352.5966780089053",
          "mean_motion": ".1847432545478844",
          "equinox": "J2000"
        }
      },
      {
        "links": {
          "self": "https://api.nasa.gov/neo/rest/v1/neo/2326386?api_key=DEMO_KEY"
        },
        "neo_reference_id": "2326386",
        "name": "326386 (2001 OA14)",
        "nasa_jpl_url": "http://ssd.jpl.nasa.gov/sbdb.cgi?sstr=2326386",
        "absolute_magnitude_h": 18.4,
        "estimated_diameter": {
          "kilometers": {
            "estimated_diameter_min": 0.5553349116,
            "estimated_diameter_max": 1.2417666126
          },
          "meters": {
            "estimated_diameter_min": 555.334911581,
            "estimated_diameter_max": 1241.766612574
          },
          "miles": {
            "estimated_diameter_min": 0.3450690093,
            "estimated_diameter_max": 0.7715977618
          },
          "feet": {
            "estimated_diameter_min": 1821.9649913114,
            "estimated_diameter_max": 4074.0375731972
          }
        },
        "is_potentially_hazardous_asteroid": false,
        "close_approach_data": [
          {
            "close_approach_date": "2017-08-12",
            "epoch_date_close_approach": 1502521200000,
            "relative_velocity": {
              "kilometers_per_second": "27.2576129349",
              "kilometers_per_hour": "98127.4065654787",
              "miles_per_hour": "60972.5543739776"
            },
            "miss_distance": {
              "astronomical": "0.4887816903",
              "lunar": "190.1360778809",
              "kilometers": "73120704",
              "miles": "45435096"
            },
            "orbiting_body": "Earth"
          }
        ],
        "orbital_data": {
          "orbit_id": "46",
          "orbit_determination_date": "2017-04-06 09:23:40",
          "orbit_uncertainty": "0",
          "minimum_orbit_intersection": ".245165",
          "jupiter_tisserand_invariant": "5.502",
          "epoch_osculation": "2458000.5",
          "eccentricity": ".421468182759802",
          "semi_major_axis": "1.089150446955567",
          "inclination": "29.23796703830097",
          "ascending_node_longitude": "309.5413546789554",
          "orbital_period": "415.1740856912111",
          "perihelion_distance": ".6301081873251781",
          "perihelion_argument": "144.3561840306214",
          "aphelion_distance": "1.548192706585956",
          "perihelion_time": "2458045.856349142627",
          "mean_anomaly": "320.671231047185",
          "mean_motion": ".8671061427175701",
          "equinox": "J2000"
        }
      },
      {
        "links": {
          "self": "https://api.nasa.gov/neo/rest/v1/neo/2438452?api_key=DEMO_KEY"
        },
        "neo_reference_id": "2438452",
        "name": "438452 (2007 AS12)",
        "nasa_jpl_url": "http://ssd.jpl.nasa.gov/sbdb.cgi?sstr=2438452",
        "absolute_magnitude_h": 19.1,
        "estimated_diameter": {
          "kilometers": {
            "estimated_diameter_min": 0.4023045798,
            "estimated_diameter_max": 0.8995803882
          },
          "meters": {
            "estimated_diameter_min": 402.3045798343,
            "estimated_diameter_max": 899.5803881691
          },
          "miles": {
            "estimated_diameter_min": 0.2499803991,
            "estimated_diameter_max": 0.5589731654
          },
          "feet": {
            "estimated_diameter_min": 1319.8969577037,
            "estimated_diameter_max": 2951.3793207207
          }
        },
        "is_potentially_hazardous_asteroid": false,
        "close_approach_data": [
          {
            "close_approach_date": "2017-08-12",
            "epoch_date_close_approach": 1502521200000,
            "relative_velocity": {
              "kilometers_per_second": "10.6443630221",
              "kilometers_per_hour": "38319.706879493",
              "miles_per_hour": "23810.3756440939"
            },
            "miss_distance": {
              "astronomical": "0.3641329956",
              "lunar": "141.6477355957",
              "kilometers": "54473520",
              "miles": "33848276"
            },
            "orbiting_body": "Earth"
          }
        ],
        "orbital_data": {
          "orbit_id": "43",
          "orbit_determination_date": "2017-08-02 06:21:53",
          "orbit_uncertainty": "0",
          "minimum_orbit_intersection": ".313747",
          "jupiter_tisserand_invariant": "4.421",
          "epoch_osculation": "2458000.5",
          "eccentricity": ".244165413020172",
          "semi_major_axis": "1.509994137548688",
          "inclination": "21.00918357570319",
          "ascending_node_longitude": "126.3115620695233",
          "orbital_period": "677.7371915024821",
          "perihelion_distance": "1.141305795296075",
          "perihelion_argument": "266.8648271058848",
          "aphelion_distance": "1.878682479801302",
          "perihelion_time": "2458076.384629207694",
          "mean_anomaly": "319.6916520779871",
          "mean_motion": ".531179348741232",
          "equinox": "J2000"
        }
      }
    ]
  }
}
